{"type": "FeatureCollection", "features": [ {"type": "Feature", "properties": {"norad_id": 66649, "name": "COSMOS 2599 (RODNIK-S 24)", "group": "last-30-days", "lat": 64.59955820603543, "lon": -51.2312209854179, "alt_km": 1494.6539717425667, "timestamp": "2025-12-02T17:49:10.801236+00:00", "meta": {"OBJECT_NAME": "COSMOS 2599 (RODNIK-S 24)", "OBJECT_ID": "2025-273C", "EPOCH": "2025-12-02T11:39:57.769920", "MEAN_MOTION": 12.41671799, "ECCENTRICITY": 0.0008392, "INCLINATION": 82.5022, "RA_OF_ASC_NODE": 292.8275, "ARG_OF_PERICENTER": 323.3981, "MEAN_ANOMALY": 36.6524, "EPHEMERIS_TYPE": 0, "CLASSIFICATION_TYPE": "U", "NORAD_CAT_ID": 66649, "ELEMENT_SET_NO": 999, "REV_AT_EPOCH": 86, "BSTAR": -5.7916e-05, "MEAN_MOTION_DOT": 2e-08, "MEAN_MOTION_DDOT": 0}, "tle": {"line1": "1 66649U 25273C   25336.48608530  .00000002  00000+0 -57916-4 0  9997", "line2": "2 66649  82.5022 292.8275 0008392 323.3981  36.6524 12.41671799   865"}}, "geometry": {"type": "Point", "coordinates": [-51.2312209854179, 64.59955820603543]}}, {"type": "Feature", "properties": {"norad_id": 66650, "name": "2025-274A", "group": "last-30-days", "lat": -76.6420447935094, "lon": -60.95336023855996, "alt_km": 593.0654141659106, "timestamp": "2025-12-02T17:49:10.801246+00:00", "meta": {"OBJECT_NAME": "2025-274A", "OBJECT_ID": "2025-274A", "EPOCH": "2025-12-02T00:27:47.322144", "MEAN_MOTION": 14.91599451, "ECCENTRICITY": 0.00104776, "INCLINATION": 97.7378, "RA_OF_ASC_NODE": 263.405, "ARG_OF_PERICENTER": 292.6464, "MEAN_ANOMALY": 67.3646, "EPHEMERIS_TYPE": 0, "CLASSIFICATION_TYPE": "U", "NORAD_CAT_ID": 66650, "ELEMENT_SET_NO": 999, "REV_AT_EPOCH": 80, "BSTAR": 0.00026443629, "MEAN_MOTION_DOT": 2.6e-05, "MEAN_MOTION_DDOT": 0}, "tle": {"line1": "1 66650U 25274A   25336.01929771  .00002600  00000+0  26444-3 0  9998", "line2": "2 66650  97.7378 263.4050 0010477 292.6464  67.3646 14.91599451   806"}}, "geometry": {"type": "Point", "coordinates": [-60.95336023855996, -76.6420447935094]}}, {"type": "Feature", "properties": {"norad_id": 66651, "name": "2025-274B", "group": "last-30-days", "lat": -75.6107449550399, "lon": -63.882674348364546, "alt_km": 592.6067646988677, "timestamp": "2025-12-02T17:49:10.801261+00:00", "meta": {"OBJECT_NAME": "2025-274B", "OBJECT_ID": "2025-274B", "EPOCH": "2025-12-02T11:43:40.294848", "MEAN_MOTION": 14.91669862, "ECCENTRICITY": 0.0010768, "INCLINATION": 97.7375, "RA_OF_ASC_NODE": 263.8656, "ARG_OF_PERICENTER": 290.3987, "MEAN_ANOMALY": 69.6075, "EPHEMERIS_TYPE": 0, "CLASSIFICATION_TYPE": "U", "NORAD_CAT_ID": 66651, "ELEMENT_SET_NO": 999, "REV_AT_EPOCH": 87, "BSTAR": 0.0005287, "MEAN_MOTION_DOT": 5.266e-05, "MEAN_MOTION_DDOT": 0}, "tle": {"line1": "1 66651U 25274B   25336.48866082  .00005266  00000+0  52870-3 0  9998", "line2": "2 66651  97.7375 263.8656 0010768 290.3987  69.6075 14.91669862   870"}}, "geometry": {"type": "Point", "coordinates": [-63.882674348364546, -75.6107449550399]}}, {"type": "Feature", "properties": {"norad_id": 66652, "name": "2025-274C", "group": "last-30-days", "lat": -72.77314091885762, "lon": -69.87360703210216, "alt_km": 592.3601511108536, "timestamp": "2025-12-02T17:49:10.801272+00:00", "meta": {"OBJECT_NAME": "2025-274C", "OBJECT_ID": "2025-274C", "EPOCH": "2025-12-02T08:29:39.348960", "MEAN_MOTION": 14.91815553, "ECCENTRICITY": 0.0010543, "INCLINATION": 97.7379, "RA_OF_ASC_NODE": 263.7352, "ARG_OF_PERICENTER": 297.6365, "MEAN_ANOMALY": 62.3783, "EPHEMERIS_TYPE": 0, "CLASSIFICATION_TYPE": "U", "NORAD_CAT_ID": 66652, "ELEMENT_SET_NO": 999, "REV_AT_EPOCH": 85, "BSTAR": 0.00038586, "MEAN_MOTION_DOT": 3.842e-05, "MEAN_MOTION_DDOT": 0}, "tle": {"line1": "1 66652U 25274C   25336.35392765  .00003842  00000+0  38586-3 0  9993", "line2": "2 66652  97.7379 263.7352 0010543 297.6365  62.3783 14.91815553   852"}}, "geometry": {"type": "Point", "coordinates": [-69.87360703210216, -72.77314091885762]}}, {"type": "Feature", "properties": {"norad_id": 66653, "name": "2025-274D", "group": "last-30-days", "lat": -72.5990417863057, "lon": -70.17346111134134, "alt_km": 591.6208523171736, "timestamp": "2025-12-02T17:49:10.801283+00:00", "meta": {"OBJECT_NAME": "2025-274D", "OBJECT_ID": "2025-274D", "EPOCH": "2025-12-02T02:03:15.458976", "MEAN_MOTION": 14.91817003, "ECCENTRICITY": 0.00114739, "INCLINATION": 97.7373, "RA_OF_ASC_NODE": 263.4712, "ARG_OF_PERICENTER": 293.8442, "MEAN_ANOMALY": 66.1574, "EPHEMERIS_TYPE": 0, "CLASSIFICATION_TYPE": "U", "NORAD_CAT_ID": 66653, "ELEMENT_SET_NO": 999, "REV_AT_EPOCH": 81, "BSTAR": 0.00016079552, "MEAN_MOTION_DOT": 1.568e-05, "MEAN_MOTION_DDOT": 0}, "tle": {"line1": "1 66653U 25274D   25336.08559559  .00001568  00000+0  16080-3 0  9998", "line2": "2 66653  97.7373 263.4712 0011473 293.8442  66.1574 14.91817003   819"}}, "geometry": {"type": "Point", "coordinates": [-70.17346111134134, -72.5990417863057]}}, {"type": "Feature", "properties": {"norad_id": 66654, "name": "JACK E", "group": "last-30-days", "lat": -69.41340347932596, "lon": -74.65819823018619, "alt_km": 590.7476550029569, "timestamp": "2025-12-02T17:49:10.801293+00:00", "meta": {"OBJECT_NAME": "JACK E", "OBJECT_ID": "2025-274E", "EPOCH": "2025-12-02T08:28:43.476672", "MEAN_MOTION": 14.91986405, "ECCENTRICITY": 0.0011895, "INCLINATION": 97.738, "RA_OF_ASC_NODE": 263.7361, "ARG_OF_PERICENTER": 294.8017, "MEAN_ANOMALY": 65.1964, "EPHEMERIS_TYPE": 0, "CLASSIFICATION_TYPE": "U", "NORAD_CAT_ID": 66654, "ELEMENT_SET_NO": 999, "REV_AT_EPOCH": 85, "BSTAR": 0.00044048, "MEAN_MOTION_DOT": 4.414e-05, "MEAN_MOTION_DDOT": 0}, "tle": {"line1": "1 66654U 25274E   25336.35328098  .00004414  00000+0  44048-3 0  9999", "line2": "2 66654  97.7380 263.7361 0011895 294.8017  65.1964 14.91986405   857"}}, "geometry": {"type": "Point", "coordinates": [-74.65819823018619, -69.41340347932596]}}, {"type": "Feature", "properties": {"norad_id": 66655, "name": "2025-274F", "group": "last-30-days", "lat": -66.80924411281029, "lon": -77.38218519373791, "alt_km": 593.5114533230308, "timestamp": "2025-12-02T17:49:10.801303+00:00", "meta": {"OBJECT_NAME": "2025-274F", "OBJECT_ID": "2025-274F", "EPOCH": "2025-12-02T08:28:04.010880", "MEAN_MOTION": 14.92211105, "ECCENTRICITY": 0.0007937, "INCLINATION": 97.7353, "RA_OF_ASC_NODE": 263.7368, "ARG_OF_PERICENTER": 323.5815, "MEAN_ANOMALY": 36.4863, "EPHEMERIS_TYPE": 0, "CLASSIFICATION_TYPE": "U", "NORAD_CAT_ID": 66655, "ELEMENT_SET_NO": 999, "REV_AT_EPOCH": 85, "BSTAR": 0.00043867, "MEAN_MOTION_DOT": 4.417e-05, "MEAN_MOTION_DDOT": 0}, "tle": {"line1": "1 66655U 25274F   25336.35282420  .00004417  00000+0  43867-3 0  9999", "line2": "2 66655  97.7353 263.7368 0007937 323.5815  36.4863 14.92211105   851"}}, "geometry": {"type": "Point", "coordinates": [-77.38218519373791, -66.80924411281029]}}, {"type": "Feature", "properties": {"norad_id": 66656, "name": "2025-274G", "group": "last-30-days", "lat": -65.77563813829258, "lon": -78.29050012267241, "alt_km": 589.6671149972099, "timestamp": "2025-12-02T17:49:10.801315+00:00", "meta": {"OBJECT_NAME": "2025-274G", "OBJECT_ID": "2025-274G", "EPOCH": "2025-12-02T08:27:44.799840", "MEAN_MOTION": 14.92167211, "ECCENTRICITY": 0.0012553, "INCLINATION": 97.7377, "RA_OF_ASC_NODE": 263.7369, "ARG_OF_PERICENTER": 296.3636, "MEAN_ANOMALY": 63.6294, "EPHEMERIS_TYPE": 0, "CLASSIFICATION_TYPE": "U", "NORAD_CAT_ID": 66656, "ELEMENT_SET_NO": 999, "REV_AT_EPOCH": 85, "BSTAR": 0.00048118, "MEAN_MOTION_DOT": 4.85e-05, "MEAN_MOTION_DDOT": 0}, "tle": {"line1": "1 66656U 25274G   25336.35260185  .00004850  00000+0  48118-3 0  9999", "line2": "2 66656  97.7377 263.7369 0012553 296.3636  63.6294 14.92167211   855"}}, "geometry": {"type": "Point", "coordinates": [-78.29050012267241, -65.77563813829258]}}, {"type": "Feature", "properties": {"norad_id": 66657, "name": "SPIRONE", "group": "last-30-days", "lat": -62.118551457199594, "lon": -80.9869592768975, "alt_km": 590.370560552371, "timestamp": "2025-12-02T17:49:10.801325+00:00", "meta": {"OBJECT_NAME": "SPIRONE", "OBJECT_ID": "2025-274H", "EPOCH": "2025-12-02T06:50:13.873056", "MEAN_MOTION": 14.92346992, "ECCENTRICITY": 0.0011178, "INCLINATION": 97.7375, "RA_OF_ASC_NODE": 263.6718, "ARG_OF_PERICENTER": 316.0117, "MEAN_ANOMALY": 44.0211, "EPHEMERIS_TYPE": 0, "CLASSIFICATION_TYPE": "U", "NORAD_CAT_ID": 66657, "ELEMENT_SET_NO": 999, "REV_AT_EPOCH": 84, "BSTAR": 0.00047593, "MEAN_MOTION_DOT": 4.817e-05, "MEAN_MOTION_DDOT": 0}, "tle": {"line1": "1 66657U 25274H   25336.28488279  .00004817  00000+0  47593-3 0  9997", "line2": "2 66657  97.7375 263.6718 0011178 316.0117  44.0211 14.92346992   843"}}, "geometry": {"type": "Point", "coordinates": [-80.9869592768975, -62.118551457199594]}}, {"type": "Feature", "properties": {"norad_id": 66658, "name": "2025-274J", "group": "last-30-days", "lat": -58.43107545049876, "lon": -83.09303358580101, "alt_km": 589.2782274853707, "timestamp": "2025-12-02T17:49:10.801335+00:00", "meta": {"OBJECT_NAME": "2025-274J", "OBJECT_ID": "2025-274J", "EPOCH": "2025-12-02T08:25:49.156032", "MEAN_MOTION": 14.92522572, "ECCENTRICITY": 0.0011816, "INCLINATION": 97.7376, "RA_OF_ASC_NODE": 263.7384, "ARG_OF_PERICENTER": 318.1646, "MEAN_ANOMALY": 41.8669, "EPHEMERIS_TYPE": 0, "CLASSIFICATION_TYPE": "U", "NORAD_CAT_ID": 66658, "ELEMENT_SET_NO": 999, "REV_AT_EPOCH": 85, "BSTAR": 0.0004508, "MEAN_MOTION_DOT": 4.58e-05, "MEAN_MOTION_DDOT": 0}, "tle": {"line1": "1 66658U 25274J   25336.35126338  .00004580  00000+0  45080-3 0  9997", "line2": "2 66658  97.7376 263.7384 0011816 318.1646  41.8669 14.92522572   857"}}, "geometry": {"type": "Point", "coordinates": [-83.09303358580101, -58.43107545049876]}}]}